SHIYAN-1 (SY-1)         
1 28220U 04012A   26068.73650539  .00016393  00000+0  54854-3 0  9991
2 28220  97.8764 140.5238 0005873  23.6952 336.4557 15.31043463195862
STARLINK-35528          
1 66094U 25236J   26068.80093039  .00017776  00000+0  61106-3 0  9991
2 66094  53.1585 103.2117 0001416  85.9414 274.1749 15.30189050 22967
