[{"OBJECT_NAME":"SHIYAN-1 (SY-1)","OBJECT_ID":"2004-012A","EPOCH":"2026-03-09T17:40:34.066560","MEAN_MOTION":15.31043463,"ECCENTRICITY":0.00058726,"INCLINATION":97.8764,"RA_OF_ASC_NODE":140.5238,"ARG_OF_PERICENTER":23.6952,"MEAN_ANOMALY":336.4557,"EPHEMERIS_TYPE":0,"CLASSIFICATION_TYPE":"U","NORAD_CAT_ID":28220,"ELEMENT_SET_NO":999,"REV_AT_EPOCH":19586,"BSTAR":0.00054854449,"MEAN_MOTION_DOT":0.00016393,"MEAN_MOTION_DDOT":0},{"OBJECT_NAME":"STARLINK-35528","OBJECT_ID":"2025-236J","EPOCH":"2026-03-09T19:13:20.386560","MEAN_MOTION":15.3018905,"ECCENTRICITY":0.00014165,"INCLINATION":53.1585,"RA_OF_ASC_NODE":103.2117,"ARG_OF_PERICENTER":85.9414,"MEAN_ANOMALY":274.1749,"EPHEMERIS_TYPE":0,"CLASSIFICATION_TYPE":"U","NORAD_CAT_ID":66094,"ELEMENT_SET_NO":999,"REV_AT_EPOCH":2296,"BSTAR":0.00061106331,"MEAN_MOTION_DOT":0.00017776,"MEAN_MOTION_DDOT":0}]
